{
  "type": "FeatureCollection",
  "features": [
    {
      "type": "Feature",
      "properties": {
        "norad_id": 55973,
        "name": "TIANMU-1 03",
        "group": "weather",
        "lat": 46.34123659724877,
        "lon": -7.7974861878978645,
        "alt_km": 439.1740942651277,
        "timestamp": "2025-12-27T04:40:45.142907+00:00",
        "meta_object_name": "TIANMU-1 03",
        "meta_object_id": "2023-039A",
        "meta_epoch": "2025-12-26T23:25:47.426304",
        "meta_mean_motion": 15.41349109,
        "meta_eccentricity": 0.000367,
        "meta_inclination": 97.5115,
        "meta_ra_of_asc_node": 164.0294,
        "meta_arg_of_pericenter": 18.9695,
        "meta_mean_anomaly": 341.1687,
        "meta_ephemeris_type": 0,
        "meta_classification_type": "U",
        "meta_norad_cat_id": 55973,
        "meta_element_set_no": 999,
        "meta_rev_at_epoch": 15425,
        "meta_bstar": 0.00043569415,
        "meta_mean_motion_dot": 0.0001811,
        "meta_mean_motion_ddot": 0,
        "tle_line1": "1 55973U 23039A   25360.97624336  .00018110  00000+0  43569-3 0  9992",
        "tle_line2": "2 55973  97.5115 164.0294 0003670  18.9695 341.1687 15.41349109154253"
      },
      "geometry": {
        "type": "Point",
        "coordinates": [
          -7.7974861878978645,
          46.34123659724877
        ]
      }
    },
    {
      "type": "Feature",
      "properties": {
        "norad_id": 55974,
        "name": "TIANMU-1 04",
        "group": "weather",
        "lat": -80.78794815317919,
        "lon": -70.93525194820492,
        "alt_km": 449.30299933894185,
        "timestamp": "2025-12-27T04:40:45.142957+00:00",
        "meta_object_name": "TIANMU-1 04",
        "meta_object_id": "2023-039B",
        "meta_epoch": "2025-12-26T22:51:40.574880",
        "meta_mean_motion": 15.41690795,
        "meta_eccentricity": 0.00042781,
        "meta_inclination": 97.5046,
        "meta_ra_of_asc_node": 163.1905,
        "meta_arg_of_pericenter": 12.4005,
        "meta_mean_anomaly": 347.7346,
        "meta_ephemeris_type": 0,
        "meta_classification_type": "U",
        "meta_norad_cat_id": 55974,
        "meta_element_set_no": 999,
        "meta_rev_at_epoch": 15425,
        "meta_bstar": 0.00041433503,
        "meta_mean_motion_dot": 0.00017414,
        "meta_mean_motion_ddot": 0,
        "tle_line1": "1 55974U 23039B   25360.95255295  .00017414  00000+0  41434-3 0  9990",
        "tle_line2": "2 55974  97.5046 163.1905 0004278  12.4005 347.7346 15.41690795154259"
      },
      "geometry": {
        "type": "Point",
        "coordinates": [
          -70.93525194820492,
          -80.78794815317919
        ]
      }
    },
    {
      "type": "Feature",
      "properties": {
        "norad_id": 55975,
        "name": "TIANMU-1 05",
        "group": "weather",
        "lat": -80.012206131022,
        "lon": -147.56037737345213,
        "alt_km": 450.9793473676764,
        "timestamp": "2025-12-27T04:40:45.142971+00:00",
        "meta_object_name": "TIANMU-1 05",
        "meta_object_id": "2023-039C",
        "meta_epoch": "2025-12-26T22:48:29.092608",
        "meta_mean_motion": 15.41302484,
        "meta_eccentricity": 0.00038632,
        "meta_inclination": 97.5093,
        "meta_ra_of_asc_node": 163.6809,
        "meta_arg_of_pericenter": 39.0802,
        "meta_mean_anomaly": 321.0723,
        "meta_ephemeris_type": 0,
        "meta_classification_type": "U",
        "meta_norad_cat_id": 55975,
        "meta_element_set_no": 999,
        "meta_rev_at_epoch": 15423,
        "meta_bstar": 0.00041093402,
        "meta_mean_motion_dot": 0.00017047,
        "meta_mean_motion_ddot": 0,
        "tle_line1": "1 55975U 23039C   25360.95033672  .00017047  00000+0  41093-3 0  9997",
        "tle_line2": "2 55975  97.5093 163.6809 0003863  39.0802 321.0723 15.41302484154236"
      },
      "geometry": {
        "type": "Point",
        "coordinates": [
          -147.56037737345213,
          -80.012206131022
        ]
      }
    },
    {
      "type": "Feature",
      "properties": {
        "norad_id": 55976,
        "name": "TIANMU-1 06",
        "group": "weather",
        "lat": -73.54262443929844,
        "lon": -42.11661023692949,
        "alt_km": 450.3022566146883,
        "timestamp": "2025-12-27T04:40:45.142986+00:00",
        "meta_object_name": "TIANMU-1 06",
        "meta_object_id": "2023-039D",
        "meta_epoch": "2025-12-26T22:54:07.470432",
        "meta_mean_motion": 15.41743131,
        "meta_eccentricity": 0.00041097,
        "meta_inclination": 97.5103,
        "meta_ra_of_asc_node": 164.1618,
        "meta_arg_of_pericenter": 32.728,
        "meta_mean_anomaly": 327.422,
        "meta_ephemeris_type": 0,
        "meta_classification_type": "U",
        "meta_norad_cat_id": 55976,
        "meta_element_set_no": 999,
        "meta_rev_at_epoch": 15425,
        "meta_bstar": 0.00043920325,
        "meta_mean_motion_dot": 0.00018499,
        "meta_mean_motion_ddot": 0,
        "tle_line1": "1 55976U 23039D   25360.95425313  .00018499  00000+0  43920-3 0  9998",
        "tle_line2": "2 55976  97.5103 164.1618 0004109  32.7280 327.4220 15.41743131154259"
      },
      "geometry": {
        "type": "Point",
        "coordinates": [
          -42.11661023692949,
          -73.54262443929844
        ]
      }
    },
    {
      "type": "Feature",
      "properties": {
        "norad_id": 56232,
        "name": "FENGYUN 3G",
        "group": "weather",
        "lat": -3.734000184410718,
        "lon": 149.72396681619898,
        "alt_km": 409.92768904546483,
        "timestamp": "2025-12-27T04:40:45.142997+00:00",
        "meta_object_name": "FENGYUN 3G",
        "meta_object_id": "2023-055A",
        "meta_epoch": "2025-12-26T22:31:11.972064",
        "meta_mean_motion": 15.52169202,
        "meta_eccentricity": 0.00039258,
        "meta_inclination": 49.9927,
        "meta_ra_of_asc_node": 154.1884,
        "meta_arg_of_pericenter": 297.083,
        "meta_mean_anomaly": 62.9736,
        "meta_ephemeris_type": 0,
        "meta_classification_type": "U",
        "meta_norad_cat_id": 56232,
        "meta_element_set_no": 999,
        "meta_rev_at_epoch": 15323,
        "meta_bstar": 0.0005425063,
        "meta_mean_motion_dot": 0.00033183,
        "meta_mean_motion_ddot": 0,
        "tle_line1": "1 56232U 23055A   25360.93833301  .00033183  00000+0  54251-3 0  9996",
        "tle_line2": "2 56232  49.9927 154.1884 0003925 297.0830  62.9736 15.52169202153239"
      },
      "geometry": {
        "type": "Point",
        "coordinates": [
          149.72396681619898,
          -3.734000184410718
        ]
      }
    },
    {
      "type": "Feature",
      "properties": {
        "norad_id": 57166,
        "name": "METEOR-M2 3",
        "group": "weather",
        "lat": 29.591945568323155,
        "lon": -120.5684049533828,
        "alt_km": 812.5061359784186,
        "timestamp": "2025-12-27T04:40:45.143008+00:00",
        "meta_object_name": "METEOR-M2 3",
        "meta_object_id": "2023-091A",
        "meta_epoch": "2025-12-26T22:55:06.071232",
        "meta_mean_motion": 14.24027775,
        "meta_eccentricity": 0.00031666,
        "meta_inclination": 98.636,
        "meta_ra_of_asc_node": 54.2447,
        "meta_arg_of_pericenter": 323.7639,
        "meta_mean_anomaly": 36.3325,
        "meta_ephemeris_type": 0,
        "meta_classification_type": "U",
        "meta_norad_cat_id": 57166,
        "meta_element_set_no": 999,
        "meta_rev_at_epoch": 13000,
        "meta_bstar": 2.4609714e-05,
        "meta_mean_motion_dot": 1.3e-07,
        "meta_mean_motion_ddot": 0,
        "tle_line1": "1 57166U 23091A   25360.95493138  .00000013  00000+0  24610-4 0  9998",
        "tle_line2": "2 57166  98.6360  54.2447 0003166 323.7639  36.3325 14.24027775130009"
      },
      "geometry": {
        "type": "Point",
        "coordinates": [
          -120.5684049533828,
          29.591945568323155
        ]
      }
    },
    {
      "type": "Feature",
      "properties": {
        "norad_id": 57399,
        "name": "TIANMU-1 07",
        "group": "weather",
        "lat": -12.772729889202862,
        "lon": 52.38774786826533,
        "alt_km": 483.7067146559939,
        "timestamp": "2025-12-27T04:40:45.143019+00:00",
        "meta_object_name": "TIANMU-1 07",
        "meta_object_id": "2023-101A",
        "meta_epoch": "2025-12-26T22:26:59.105184",
        "meta_mean_motion": 15.28275296,
        "meta_eccentricity": 0.00048773,
        "meta_inclination": 97.2857,
        "meta_ra_of_asc_node": 50.4719,
        "meta_arg_of_pericenter": 44.6112,
        "meta_mean_anomaly": 315.5519,
        "meta_ephemeris_type": 0,
        "meta_classification_type": "U",
        "meta_norad_cat_id": 57399,
        "meta_element_set_no": 999,
        "meta_rev_at_epoch": 13532,
        "meta_bstar": 0.00029696563,
        "meta_mean_motion_dot": 8.111e-05,
        "meta_mean_motion_ddot": 0,
        "tle_line1": "1 57399U 23101A   25360.93540631  .00008111  00000+0  29697-3 0  9993",
        "tle_line2": "2 57399  97.2857  50.4719 0004877  44.6112 315.5519 15.28275296135323"
      },
      "geometry": {
        "type": "Point",
        "coordinates": [
          52.38774786826533,
          -12.772729889202862
        ]
      }
    }
  ]
}